{"type":"FeatureCollection","max":{"t":192659,"c":79049},"features":[{"type":"Feature","geometry":{"type":"LineString","coordinates":[[-4.21694,55.88587],[-4.21719,55.88582],[-4.21666,55.88522],[-4.21606,55.88472],[-4.21493,55.88405],[-4.21293,55.88327],[-4.21099,55.88282]]},"properties":{"id":75,"name":"Broomfield Rd","opened":"2017-09-15","km":0.545,"t":6,"c":0,"n":6}},{"type":"Feature","geometry":{"type":"LineString","coordinates":[[-4.21832,55.88893],[-4.21834,55.88824],[-4.21794,55.88697],[-4.21734,55.88599],[-4.21694,55.88597],[-4.21695,55.88586]]},"properties":{"id":76,"name":"Balornock Rd","opened":"2017-09-15","km":0.373,"t":203,"c":0,"n":203}},{"type":"Feature","geometry":{"type":"LineString","coordinates":[[-4.25626,55.85698],[-4.25209,55.85624]]},"properties":{"id":85,"name":"Howard St","opened":"2021-02-22","km":0.275,"t":82096,"c":30007,"n":52089}},{"type":"Feature","geometry":{"type":"LineString","coordinates":[[-4.33019,55.87099],[-4.32958,55.87218],[-4.32899,55.87301],[-4.32873,55.87302]]},"properties":{"id":100,"name":"Clyde Tunnel","opened":"2017-09-15","km":0.254,"t":7514,"c":42,"n":7472}},{"type":"Feature","geometry":{"type":"LineString","coordinates":[[-4.24071,55.85474],[-4.24243,55.85566],[-4.24335,55.85516],[-4.24454,55.85579],[-4.24454,55.85587],[-4.24491,55.85598]]},"properties":{"id":111,"name":"St Andrews St, James Morrison St & London Road","opened":"2017-09-15","km":0.369,"t":75039,"c":29588,"n":45451}},{"type":"Feature","geometry":{"type":"LineString","coordinates":[[-4.25492,55.87107],[-4.25504,55.87118],[-4.25476,55.8713],[-4.24987,55.873],[-4.24905,55.87321]]},"properties":{"id":118,"name":"North Canal Bank St (between Boron St to Craighall Rd)","opened":"2017-09-15","km":0.453,"t":1625,"c":0,"n":1625}},{"type":"Feature","geometry":{"type":"LineString","coordinates":[[-4.30022,55.86802],[-4.30005,55.86827],[-4.30052,55.86956]]},"properties":{"id":152,"name":"Benalder St","opened":"2017-09-15","km":0.176,"t":33656,"c":3677,"n":29979}},{"type":"Feature","geometry":{"type":"LineString","coordinates":[[-4.26439,55.85457],[-4.26458,55.85445],[-4.26489,55.85439],[-4.2681,55.85418],[-4.26966,55.85421]]},"properties":{"id":267,"name":"Paisley Rd @Squiggly Bridge","opened":"2017-09-15","km":0.339,"t":60584,"c":22635,"n":37949}},{"type":"Feature","geometry":{"type":"LineString","coordinates":[[-4.26396,55.8554],[-4.2635,55.8554],[-4.26011,55.85498]]},"properties":{"id":272,"name":"NCN 756","opened":"2017-09-15","km":0.246,"t":67583,"c":33166,"n":34417}},{"type":"Feature","geometry":{"type":"LineString","coordinates":[[-4.29657,55.86807],[-4.29553,55.86889],[-4.29486,55.86918],[-4.29394,55.86939]]},"properties":{"id":386,"name":"Bunhouse Rd","opened":"2017-09-15","km":0.227,"t":2202,"c":62,"n":2140}},{"type":"Feature","geometry":{"type":"LineString","coordinates":[[-4.25783,55.85466],[-4.258,55.85473],[-4.25959,55.85492]]},"properties":{"id":392,"name":"NCN 756","opened":"2017-09-15","km":0.116,"t":39049,"c":11194,"n":27855}},{"type":"Feature","geometry":{"type":"LineString","coordinates":[[-4.30117,55.86782],[-4.30081,55.86795],[-4.3002,55.86802],[-4.29847,55.86811],[-4.29643,55.86798]]},"properties":{"id":440,"name":"Ferry Rd- Old Dumbarton Rd","opened":"2017-09-15","km":0.303,"t":33656,"c":3677,"n":29979}},{"type":"Feature","geometry":{"type":"LineString","coordinates":[[-4.20294,55.89158],[-4.20443,55.89058],[-4.20571,55.89006],[-4.20862,55.88914],[-4.21407,55.88629],[-4.21561,55.88593],[-4.21694,55.88586]]},"properties":{"id":448,"name":"Wallacewell Road","opened":"2021-04-27","km":1.108,"t":0,"c":0,"n":0}},{"type":"Feature","geometry":{"type":"LineString","coordinates":[[-4.27774,55.82189],[-4.27787,55.82183]]},"properties":{"id":449,"name":"Langside Dr - Riverside Rd","opened":"2017-09-15","km":0.012,"t":0,"c":0,"n":0}},{"type":"Feature","geometry":{"type":"LineString","coordinates":[[-4.20281,55.8919],[-4.20396,55.89101],[-4.20458,55.89068],[-4.20592,55.89014],[-4.20884,55.8892],[-4.21372,55.8866],[-4.21531,55.88611],[-4.21692,55.88597]]},"properties":{"id":450,"name":"Wallacewell Road","opened":"2021-04-27","km":1.127,"t":0,"c":0,"n":0}},{"type":"Feature","geometry":{"type":"LineString","coordinates":[[-4.27727,55.82243],[-4.27746,55.82246],[-4.27774,55.82189]]},"properties":{"id":451,"name":"Millbrae Bridge","opened":"2017-09-15","km":0.078,"t":953,"c":0,"n":953}},{"type":"Feature","geometry":{"type":"LineString","coordinates":[[-4.2599,55.85501],[-4.25988,55.85638],[-4.25997,55.85645]]},"properties":{"id":460,"name":"George V Bridge","opened":"2025-06-01","km":0.163,"t":68030,"c":21379,"n":46651}},{"type":"Feature","geometry":{"type":"LineString","coordinates":[[-4.2866,55.84572],[-4.2868,55.8456],[-4.28837,55.84576]]},"properties":{"id":462,"name":"Maxwell Dr","opened":"2017-09-15","km":0.119,"t":5379,"c":0,"n":5379}},{"type":"Feature","geometry":{"type":"LineString","coordinates":[[-4.25054,55.8388],[-4.25071,55.83901],[-4.25115,55.83921],[-4.25407,55.84021]]},"properties":{"id":502,"name":"Aikenhead Road","opened":"2020-09-13","km":0.275,"t":1880,"c":0,"n":1880}},{"type":"Feature","geometry":{"type":"LineString","coordinates":[[-4.33316,55.86325],[-4.33317,55.86315],[-4.3329,55.86318],[-4.33215,55.86345],[-4.33165,55.86391],[-4.33154,55.8642],[-4.33162,55.86798],[-4.33135,55.86941],[-4.33103,55.87035],[-4.33014,55.87178],[-4.33028,55.87212],[-4.33125,55.87233],[-4.33162,55.87278],[-4.33218,55.87293]]},"properties":{"id":514,"name":"Clyde Tunnel","opened":"2017-09-15","km":1.235,"t":9072,"c":1274,"n":7798}},{"type":"Feature","geometry":{"type":"LineString","coordinates":[[-4.32909,55.86422],[-4.32956,55.86439],[-4.33004,55.86468],[-4.33085,55.86485],[-4.33122,55.86505],[-4.33104,55.86802],[-4.33062,55.87011],[-4.33019,55.87099]]},"properties":{"id":527,"name":"Clyde Tunnel","opened":"2017-09-15","km":0.835,"t":2945,"c":660,"n":2285}},{"type":"Feature","geometry":{"type":"LineString","coordinates":[[-4.24679,55.85593],[-4.2463,55.85711]]},"properties":{"id":543,"name":"King Street","opened":"2024-06-17","km":0.135,"t":70978,"c":28105,"n":42873}},{"type":"Feature","geometry":{"type":"LineString","coordinates":[[-4.27519,55.84591],[-4.27757,55.84622],[-4.28043,55.84642],[-4.28465,55.8465],[-4.28577,55.84625],[-4.28769,55.8447],[-4.28843,55.84393],[-4.28897,55.84308],[-4.28974,55.84105],[-4.2903,55.84027],[-4.29105,55.83964],[-4.29256,55.83879],[-4.29345,55.83817],[-4.29524,55.83604],[-4.29729,55.83454]]},"properties":{"id":570,"name":"St Andrew's Drive","opened":"2023-02-01","km":2.189,"t":14661,"c":770,"n":13891}},{"type":"Feature","geometry":{"type":"LineString","coordinates":[[-4.18242,55.87511],[-4.18167,55.8755],[-4.18101,55.87601],[-4.17903,55.87846],[-4.17823,55.87925],[-4.17366,55.88184]]},"properties":{"id":577,"name":"Cumbernauld Rd","opened":"2020-08-20","km":0.942,"t":0,"c":0,"n":0}},{"type":"Feature","geometry":{"type":"LineString","coordinates":[[-4.18293,55.87476],[-4.18159,55.87543],[-4.18091,55.87594],[-4.17927,55.878],[-4.17814,55.87919],[-4.17686,55.87998],[-4.17336,55.88185]]},"properties":{"id":578,"name":"Cumbernauld Rd","opened":"2020-08-20","km":1.006,"t":0,"c":0,"n":0}},{"type":"Feature","geometry":{"type":"LineString","coordinates":[[-4.19386,55.8783],[-4.19387,55.87779],[-4.19358,55.8773],[-4.19282,55.87691],[-4.19156,55.87645],[-4.18324,55.87482]]},"properties":{"id":579,"name":"Provanmill Rd","opened":"2020-08-20","km":0.825,"t":4,"c":0,"n":4}},{"type":"Feature","geometry":{"type":"LineString","coordinates":[[-4.25755,55.85615],[-4.25804,55.85475]]},"properties":{"id":582,"name":"Glasgow Bridge","opened":"2017-09-15","km":0.158,"t":42618,"c":14235,"n":28383}},{"type":"Feature","geometry":{"type":"LineString","coordinates":[[-4.23977,55.87034],[-4.24075,55.87206]]},"properties":{"id":585,"name":"Pinkston Rd","opened":"2017-09-15","km":0.202,"t":723,"c":0,"n":723}},{"type":"Feature","geometry":{"type":"LineString","coordinates":[[-4.25579,55.84767],[-4.26128,55.8439]]},"properties":{"id":586,"name":"Pollokshaws Rd","opened":"2019-03-29","km":0.545,"t":68499,"c":28083,"n":40416}},{"type":"Feature","geometry":{"type":"LineString","coordinates":[[-4.28965,55.85332],[-4.28963,55.85355],[-4.28986,55.85361],[-4.2898,55.85371],[-4.2894,55.85369],[-4.28893,55.85378],[-4.2884,55.85408],[-4.28796,55.85601]]},"properties":{"id":629,"name":"NCN 7","opened":"2017-09-15","km":0.374,"t":18907,"c":3157,"n":15750}},{"type":"Feature","geometry":{"type":"LineString","coordinates":[[-4.20325,55.87607],[-4.20126,55.87724],[-4.19993,55.87757]]},"properties":{"id":634,"name":"Royston Rd","opened":"2021-05-01","km":0.273,"t":4,"c":0,"n":4}},{"type":"Feature","geometry":{"type":"LineString","coordinates":[[-4.17336,55.88185],[-4.16768,55.88267],[-4.16459,55.88346]]},"properties":{"id":635,"name":"Cumbernauld Rd","opened":"2020-08-20","km":0.581,"t":0,"c":0,"n":0}},{"type":"Feature","geometry":{"type":"LineString","coordinates":[[-4.21534,55.87272],[-4.21396,55.87314],[-4.21314,55.87329],[-4.21136,55.87355],[-4.20911,55.87363],[-4.20769,55.87388],[-4.20498,55.8751],[-4.20325,55.87607]]},"properties":{"id":636,"name":"Royston Rd","opened":"2021-05-01","km":0.872,"t":0,"c":0,"n":0}},{"type":"Feature","geometry":{"type":"LineString","coordinates":[[-4.19406,55.87836],[-4.19399,55.87766],[-4.19365,55.87726],[-4.19289,55.87687],[-4.19163,55.87642],[-4.18363,55.87481]]},"properties":{"id":638,"name":"Provanmill Rd","opened":"2020-08-20","km":0.817,"t":4,"c":0,"n":4}},{"type":"Feature","geometry":{"type":"LineString","coordinates":[[-4.23214,55.84733],[-4.23176,55.84736],[-4.22847,55.84824]]},"properties":{"id":694,"name":"NCN LINK 75","opened":"2023-07-06","km":0.253,"t":12698,"c":4171,"n":8527}},{"type":"Feature","geometry":{"type":"LineString","coordinates":[[-4.27078,55.86699],[-4.27081,55.86648],[-4.27058,55.86631],[-4.26193,55.86527]]},"properties":{"id":695,"name":"Sauchiehall Street","opened":"2017-09-15","km":0.635,"t":85239,"c":10794,"n":74445}},{"type":"Feature","geometry":{"type":"LineString","coordinates":[[-4.2229,55.84258],[-4.22503,55.84257],[-4.22556,55.84245]]},"properties":{"id":747,"name":"Clyde gateway","opened":"2017-09-15","km":0.17,"t":4812,"c":979,"n":3833}},{"type":"Feature","geometry":{"type":"LineString","coordinates":[[-4.26138,55.87408],[-4.2618,55.87451],[-4.26285,55.87511],[-4.26607,55.87759],[-4.26749,55.87808],[-4.26869,55.8787]]},"properties":{"id":748,"name":"Garscube Road","opened":"2021-06-06","km":0.697,"t":28081,"c":2340,"n":25741}},{"type":"Feature","geometry":{"type":"LineString","coordinates":[[-4.13493,55.84031],[-4.13377,55.84],[-4.13357,55.84],[-4.13077,55.84047],[-4.12941,55.84055],[-4.12558,55.84036],[-4.12319,55.84012]]},"properties":{"id":753,"name":"Hamilton Rd","opened":"2017-09-15","km":0.756,"t":3,"c":0,"n":3}},{"type":"Feature","geometry":{"type":"LineString","coordinates":[[-4.26196,55.87446],[-4.26315,55.87407]]},"properties":{"id":754,"name":"St George's Rd","opened":"2021-06-06","km":0.087,"t":23781,"c":2340,"n":21441}},{"type":"Feature","geometry":{"type":"LineString","coordinates":[[-4.12316,55.84016],[-4.12228,55.83987],[-4.11754,55.83777]]},"properties":{"id":755,"name":"Hamilton Rd","opened":"2017-09-15","km":0.442,"t":0,"c":0,"n":0}},{"type":"Feature","geometry":{"type":"LineString","coordinates":[[-4.26138,55.87408],[-4.26053,55.87112],[-4.26024,55.87061]]},"properties":{"id":758,"name":"Garscube Road","opened":"2021-06-06","km":0.393,"t":23857,"c":2266,"n":21591}},{"type":"Feature","geometry":{"type":"LineString","coordinates":[[-4.22584,55.84902],[-4.22459,55.84889],[-4.22211,55.84918],[-4.22024,55.84913],[-4.21836,55.84899]]},"properties":{"id":776,"name":"London Rd","opened":"2023-07-06","km":0.475,"t":10002,"c":506,"n":9496}},{"type":"Feature","geometry":{"type":"LineString","coordinates":[[-4.33922,55.8319],[-4.33775,55.83236]]},"properties":{"id":794,"name":"NCN 7","opened":"2020-09-13","km":0.105,"t":0,"c":0,"n":0}},{"type":"Feature","geometry":{"type":"LineString","coordinates":[[-4.27499,55.86187],[-4.27604,55.86511],[-4.27993,55.86488],[-4.28007,55.86493],[-4.28033,55.86572]]},"properties":{"id":796,"name":"NCN 756","opened":"2017-09-15","km":0.718,"t":131319,"c":24699,"n":106620}},{"type":"Feature","geometry":{"type":"LineString","coordinates":[[-4.26495,55.86082],[-4.26608,55.86096],[-4.2662,55.86081],[-4.26644,55.86081]]},"properties":{"id":800,"name":"Waterloo St","opened":"2017-09-15","km":0.107,"t":12415,"c":8171,"n":4244}},{"type":"Feature","geometry":{"type":"LineString","coordinates":[[-4.25896,55.86025],[-4.26495,55.86082]]},"properties":{"id":801,"name":"Waterloo St","opened":"2017-09-15","km":0.381,"t":33268,"c":9231,"n":24037}},{"type":"Feature","geometry":{"type":"LineString","coordinates":[[-4.27654,55.84982],[-4.27509,55.84796],[-4.27482,55.84731],[-4.2748,55.84695],[-4.27516,55.84591]]},"properties":{"id":802,"name":"Shields Rd","opened":"2017-09-15","km":0.458,"t":49696,"c":15453,"n":34243}},{"type":"Feature","geometry":{"type":"LineString","coordinates":[[-4.26397,55.85536],[-4.26414,55.85523],[-4.2644,55.85452],[-4.2643,55.85429],[-4.26598,55.84971]]},"properties":{"id":803,"name":"West St","opened":"2017-09-15","km":0.646,"t":85874,"c":33802,"n":52072}},{"type":"Feature","geometry":{"type":"LineString","coordinates":[[-4.12327,55.8401],[-4.12239,55.83981],[-4.11764,55.83771]]},"properties":{"id":804,"name":"Hamilton Rd","opened":"2017-09-15","km":0.444,"t":0,"c":0,"n":0}},{"type":"Feature","geometry":{"type":"LineString","coordinates":[[-4.27654,55.84982],[-4.26879,55.84992],[-4.2664,55.8496],[-4.26613,55.8496],[-4.26598,55.84971]]},"properties":{"id":805,"name":"Scotland St","opened":"2017-09-15","km":0.671,"t":48531,"c":21436,"n":27095}},{"type":"Feature","geometry":{"type":"LineString","coordinates":[[-4.26596,55.83366],[-4.26547,55.83493]]},"properties":{"id":812,"name":"Victoria Rd","opened":"2018-11-14","km":0.146,"t":29114,"c":10131,"n":18983}},{"type":"Feature","geometry":{"type":"LineString","coordinates":[[-4.26123,55.87522],[-4.26135,55.87482],[-4.26169,55.87455],[-4.26196,55.87446]]},"properties":{"id":813,"name":"Possil Rd","opened":"2021-06-06","km":0.102,"t":6490,"c":367,"n":6123}},{"type":"Feature","geometry":{"type":"LineString","coordinates":[[-4.26963,55.87868],[-4.2687,55.8787]]},"properties":{"id":814,"name":"Hinshaw St","opened":"2021-06-06","km":0.059,"t":16078,"c":328,"n":15750}},{"type":"Feature","geometry":{"type":"LineString","coordinates":[[-4.25962,55.85492],[-4.25957,55.85644]]},"properties":{"id":822,"name":"George V Bridge","opened":"2025-06-01","km":0.169,"t":39815,"c":12060,"n":27755}},{"type":"Feature","geometry":{"type":"LineString","coordinates":[[-4.37089,55.88606],[-4.36797,55.89008]]},"properties":{"id":850,"name":"Dyke Rd (Holehouse Dr - Speirshall Close","opened":"2020-09-13","km":0.484,"t":0,"c":0,"n":0}},{"type":"Feature","geometry":{"type":"LineString","coordinates":[[-4.25867,55.86063],[-4.25883,55.86024],[-4.25896,55.86025]]},"properties":{"id":874,"name":"Hope Street","opened":"2017-09-15","km":0.055,"t":49480,"c":11669,"n":37811}},{"type":"Feature","geometry":{"type":"LineString","coordinates":[[-4.35191,55.88924],[-4.3519,55.89025],[-4.35174,55.89101]]},"properties":{"id":882,"name":"Lincoln Ave","opened":"2018-08-01","km":0.197,"t":45,"c":0,"n":45}},{"type":"Feature","geometry":{"type":"LineString","coordinates":[[-4.35174,55.89101],[-4.35097,55.89249],[-4.35038,55.89324],[-4.34923,55.8943]]},"properties":{"id":884,"name":"Lincoln Ave","opened":"2018-08-01","km":0.402,"t":45,"c":0,"n":45}},{"type":"Feature","geometry":{"type":"LineString","coordinates":[[-4.34923,55.8943],[-4.35135,55.89478],[-4.35432,55.89567]]},"properties":{"id":885,"name":"Archerhill Rd (Lincoln Avn - Clarion Rd)","opened":"2018-08-01","km":0.354,"t":362,"c":0,"n":362}},{"type":"Feature","geometry":{"type":"LineString","coordinates":[[-4.29125,55.85582],[-4.29069,55.85659]]},"properties":{"id":968,"name":"Festival Walk from Pacific Drive","opened":"2017-09-15","km":0.092,"t":0,"c":0,"n":0}},{"type":"Feature","geometry":{"type":"LineString","coordinates":[[-4.24052,55.85451],[-4.24071,55.85474]]},"properties":{"id":999,"name":"London Rd","opened":"2017-09-15","km":0.031,"t":45154,"c":21348,"n":23806}},{"type":"Feature","geometry":{"type":"LineString","coordinates":[[-4.24204,55.87799],[-4.24154,55.87785],[-4.23926,55.87671],[-4.23727,55.8752],[-4.23536,55.8746]]},"properties":{"id":1023,"name":"Fountainwell Rd link","opened":"2017-09-15","km":0.572,"t":668,"c":0,"n":668}},{"type":"Feature","geometry":{"type":"LineString","coordinates":[[-4.33161,55.87451],[-4.33025,55.87434],[-4.32933,55.87478],[-4.32838,55.87499],[-4.32816,55.87517],[-4.32765,55.87598],[-4.32779,55.87645]]},"properties":{"id":1035,"name":"Victoria Park Dr S - Victoria Park Dr N","opened":"2017-09-15","km":0.403,"t":90,"c":0,"n":90}},{"type":"Feature","geometry":{"type":"LineString","coordinates":[[-4.26282,55.84231],[-4.26361,55.84004]]},"properties":{"id":1056,"name":"Victoria Rd","opened":"2018-11-14","km":0.258,"t":56855,"c":19619,"n":37236}},{"type":"Feature","geometry":{"type":"LineString","coordinates":[[-4.25533,55.84777],[-4.2556,55.84767],[-4.2572,55.84661],[-4.25986,55.84474]]},"properties":{"id":1057,"name":"Pollokshaws Rd","opened":"2019-03-29","km":0.444,"t":68499,"c":28083,"n":40416}},{"type":"Feature","geometry":{"type":"LineString","coordinates":[[-4.25515,55.84812],[-4.25579,55.84767]]},"properties":{"id":1058,"name":"Pollokshaws Rd","opened":"2019-03-29","km":0.064,"t":68766,"c":28083,"n":40683}},{"type":"Feature","geometry":{"type":"LineString","coordinates":[[-4.26128,55.8439],[-4.26217,55.84325],[-4.26274,55.84256],[-4.26283,55.84231]]},"properties":{"id":1059,"name":"Pollokshaws Rd","opened":"2019-03-29","km":0.205,"t":148574,"c":51936,"n":96638}},{"type":"Feature","geometry":{"type":"LineString","coordinates":[[-4.2501,55.85469],[-4.25063,55.85444],[-4.25286,55.85218],[-4.25484,55.84848],[-4.25515,55.84812]]},"properties":{"id":1095,"name":"Gorbals St","opened":"2023-04-03","km":0.807,"t":192659,"c":79049,"n":113610}},{"type":"Feature","geometry":{"type":"LineString","coordinates":[[-4.26361,55.84004],[-4.26547,55.83493]]},"properties":{"id":1096,"name":"Victoria Rd","opened":"2018-11-14","km":0.581,"t":65543,"c":21547,"n":43996}},{"type":"Feature","geometry":{"type":"MultiLineString","coordinates":[[[-4.26109,55.8439],[-4.26226,55.843]],[[-4.25986,55.84474],[-4.26109,55.8439]],[[-4.25539,55.84794],[-4.25524,55.84786],[-4.25533,55.84777]]]},"properties":{"id":1097,"name":"Pollokshaws Rd","opened":"2019-03-29","km":0.27,"t":85509,"c":32927,"n":52582}},{"type":"Feature","geometry":{"type":"LineString","coordinates":[[-4.19879,55.84703],[-4.188,55.84214],[-4.1842,55.84103],[-4.18124,55.84003]]},"properties":{"id":1192,"name":"London Rd","opened":"2020-07-17","km":1.353,"t":1985,"c":0,"n":1985}},{"type":"Feature","geometry":{"type":"LineString","coordinates":[[-4.2082,55.84823],[-4.20156,55.84768],[-4.19998,55.84737],[-4.1978,55.84647],[-4.18806,55.84205],[-4.18394,55.84085],[-4.18088,55.83982]]},"properties":{"id":1195,"name":"London Rd","opened":"2020-07-17","km":1.993,"t":4544,"c":0,"n":4544}},{"type":"Feature","geometry":{"type":"LineString","coordinates":[[-4.27881,55.85737],[-4.27467,55.85695]]},"properties":{"id":1198,"name":"Lancefield Quay","opened":"2020-05-15","km":0.263,"t":33503,"c":16831,"n":16672}},{"type":"Feature","geometry":{"type":"LineString","coordinates":[[-4.25052,55.8544],[-4.25195,55.85489],[-4.25611,55.85599]]},"properties":{"id":1216,"name":"Clyde St","opened":"2020-05-15","km":0.393,"t":151231,"c":69487,"n":81744}},{"type":"Feature","geometry":{"type":"LineString","coordinates":[[-4.25892,55.88684],[-4.25988,55.88764],[-4.26037,55.88789],[-4.26097,55.88807],[-4.26504,55.88877],[-4.2665,55.8888],[-4.26801,55.88866]]},"properties":{"id":1217,"name":"Bilsland Drive","opened":"2020-09-13","km":0.646,"t":246,"c":0,"n":246}},{"type":"Feature","geometry":{"type":"LineString","coordinates":[[-4.2488,55.88649],[-4.23991,55.88719],[-4.23824,55.88693]]},"properties":{"id":1218,"name":"Hawthorn St","opened":"2020-10-02","km":0.67,"t":72,"c":0,"n":72}},{"type":"Feature","geometry":{"type":"LineString","coordinates":[[-4.14034,55.83934],[-4.13493,55.84031]]},"properties":{"id":1245,"name":"London Rd","opened":"2017-09-15","km":0.355,"t":143,"c":0,"n":143}},{"type":"Feature","geometry":{"type":"LineString","coordinates":[[-4.35139,55.83052],[-4.35013,55.82914]]},"properties":{"id":1317,"name":"Brockburn Rd","opened":"2021-03-21","km":0.173,"t":0,"c":0,"n":0}},{"type":"Feature","geometry":{"type":"LineString","coordinates":[[-4.35298,55.83303],[-4.35187,55.83259]]},"properties":{"id":1318,"name":"Brockburn Rd","opened":"2021-03-21","km":0.086,"t":0,"c":0,"n":0}},{"type":"Feature","geometry":{"type":"LineString","coordinates":[[-4.34673,55.82551],[-4.34574,55.82447]]},"properties":{"id":1319,"name":"Brockburn Rd","opened":"2021-03-21","km":0.131,"t":0,"c":0,"n":0}},{"type":"Feature","geometry":{"type":"LineString","coordinates":[[-4.35411,55.83345],[-4.35298,55.83303]]},"properties":{"id":1320,"name":"Brockburn Rd","opened":"2021-03-21","km":0.086,"t":0,"c":0,"n":0}},{"type":"Feature","geometry":{"type":"LineString","coordinates":[[-4.35417,55.83336],[-4.35309,55.83295],[-4.35232,55.83235]]},"properties":{"id":1322,"name":"Brockburn Rd","opened":"2021-03-21","km":0.165,"t":0,"c":0,"n":0}},{"type":"Feature","geometry":{"type":"LineString","coordinates":[[-4.36141,55.83451],[-4.35417,55.83336]]},"properties":{"id":1323,"name":"Brockburn Rd","opened":"2021-03-21","km":0.472,"t":0,"c":0,"n":0}},{"type":"Feature","geometry":{"type":"LineString","coordinates":[[-4.36141,55.83451],[-4.36122,55.83453],[-4.35411,55.83345]]},"properties":{"id":1324,"name":"Brockburn Rd","opened":"2021-03-21","km":0.473,"t":0,"c":0,"n":0}},{"type":"Feature","geometry":{"type":"LineString","coordinates":[[-4.34553,55.82448],[-4.34656,55.82555]]},"properties":{"id":1338,"name":"Brockburn Rd","opened":"2021-03-21","km":0.135,"t":0,"c":0,"n":0}},{"type":"Feature","geometry":{"type":"LineString","coordinates":[[-4.34748,55.82654],[-4.34997,55.82919]]},"properties":{"id":1339,"name":"Brockburn Rd","opened":"2021-03-21","km":0.334,"t":0,"c":0,"n":0}},{"type":"Feature","geometry":{"type":"LineString","coordinates":[[-4.35223,55.83219],[-4.35227,55.83203],[-4.35139,55.83052]]},"properties":{"id":1340,"name":"Brockburn Rd","opened":"2021-03-21","km":0.194,"t":0,"c":0,"n":0}},{"type":"Feature","geometry":{"type":"LineString","coordinates":[[-4.34726,55.82631],[-4.34748,55.82654]]},"properties":{"id":1341,"name":"Brockburn Rd","opened":"2021-03-21","km":0.03,"t":0,"c":0,"n":0}},{"type":"Feature","geometry":{"type":"LineString","coordinates":[[-4.34656,55.82555],[-4.34726,55.82631]]},"properties":{"id":1342,"name":"Brockburn Rd","opened":"2021-03-21","km":0.095,"t":0,"c":0,"n":0}},{"type":"Feature","geometry":{"type":"LineString","coordinates":[[-4.34997,55.82919],[-4.35125,55.83057]]},"properties":{"id":1343,"name":"Brockburn Rd","opened":"2021-03-21","km":0.173,"t":0,"c":0,"n":0}},{"type":"Feature","geometry":{"type":"LineString","coordinates":[[-4.35125,55.83057],[-4.35181,55.83161],[-4.35158,55.83212]]},"properties":{"id":1345,"name":"Brockburn Rd","opened":"2021-03-21","km":0.18,"t":0,"c":0,"n":0}},{"type":"Feature","geometry":{"type":"LineString","coordinates":[[-4.34743,55.82626],[-4.34673,55.82551]]},"properties":{"id":1347,"name":"Brockburn Rd","opened":"2021-03-21","km":0.094,"t":0,"c":0,"n":0}},{"type":"Feature","geometry":{"type":"LineString","coordinates":[[-4.34764,55.8265],[-4.34743,55.82626]]},"properties":{"id":1348,"name":"Brockburn Rd","opened":"2021-03-21","km":0.03,"t":0,"c":0,"n":0}},{"type":"Feature","geometry":{"type":"LineString","coordinates":[[-4.35013,55.82914],[-4.34764,55.8265]]},"properties":{"id":1349,"name":"Brockburn Rd","opened":"2021-03-21","km":0.334,"t":0,"c":0,"n":0}},{"type":"Feature","geometry":{"type":"LineString","coordinates":[[-4.26001,55.86592],[-4.25948,55.86713]]},"properties":{"id":1363,"name":"Cambridge St (Cowcaddens Rd to Renfrew St)","opened":"2021-04-10","km":0.138,"t":15264,"c":298,"n":14966}},{"type":"Feature","geometry":{"type":"LineString","coordinates":[[-4.33472,55.83845],[-4.33612,55.83326],[-4.33632,55.8329],[-4.33699,55.8324]]},"properties":{"id":1367,"name":"Corkerhill Road","opened":"2020-10-02","km":0.701,"t":1504,"c":0,"n":1504}},{"type":"Feature","geometry":{"type":"LineString","coordinates":[[-4.33775,55.83236],[-4.33698,55.83263],[-4.33643,55.83313],[-4.33488,55.83847]]},"properties":{"id":1368,"name":"Corkerhill Road","opened":"2020-10-02","km":0.726,"t":1504,"c":0,"n":1504}},{"type":"Feature","geometry":{"type":"LineString","coordinates":[[-4.31908,55.87578],[-4.3182,55.87597],[-4.3163,55.87599]]},"properties":{"id":1429,"name":"Clarence Dr","opened":"2020-12-04","km":0.179,"t":787,"c":0,"n":787}},{"type":"Feature","geometry":{"type":"LineString","coordinates":[[-4.31546,55.8764],[-4.31468,55.87758],[-4.3141,55.87776],[-4.31335,55.87774],[-4.30915,55.87726]]},"properties":{"id":1430,"name":"Clarence Dr","opened":"2020-12-04","km":0.497,"t":787,"c":0,"n":787}},{"type":"Feature","geometry":{"type":"LineString","coordinates":[[-4.31818,55.87606],[-4.31649,55.87608],[-4.31602,55.87617],[-4.31571,55.87638],[-4.31505,55.87734]]},"properties":{"id":1431,"name":"Clarence Dr","opened":"2020-12-04","km":0.283,"t":787,"c":0,"n":787}},{"type":"Feature","geometry":{"type":"LineString","coordinates":[[-4.31188,55.87764],[-4.3073,55.87711]]},"properties":{"id":1432,"name":"Clarence Dr","opened":"2020-12-04","km":0.292,"t":1294,"c":0,"n":1294}},{"type":"Feature","geometry":{"type":"LineString","coordinates":[[-4.31418,55.87785],[-4.3136,55.87785]]},"properties":{"id":1435,"name":"Clarence Dr","opened":"2020-12-04","km":0.036,"t":787,"c":0,"n":787}},{"type":"Feature","geometry":{"type":"LineString","coordinates":[[-4.31389,55.86322],[-4.3131,55.86328],[-4.31251,55.86323]]},"properties":{"id":1437,"name":"Burleigh St","opened":"2017-09-15","km":0.087,"t":5107,"c":1232,"n":3875}},{"type":"Feature","geometry":{"type":"LineString","coordinates":[[-4.21582,55.84887],[-4.21224,55.84861],[-4.21145,55.84861]]},"properties":{"id":1515,"name":"London Rd","opened":"2023-07-06","km":0.275,"t":10176,"c":506,"n":9670}},{"type":"Feature","geometry":{"type":"LineString","coordinates":[[-4.21836,55.84899],[-4.21637,55.84884]]},"properties":{"id":1532,"name":"London Rd","opened":"2023-07-06","km":0.126,"t":10002,"c":506,"n":9496}},{"type":"Feature","geometry":{"type":"LineString","coordinates":[[-4.21584,55.84881],[-4.2103,55.84838]]},"properties":{"id":1533,"name":"London Rd","opened":"2023-07-06","km":0.35,"t":10176,"c":506,"n":9670}},{"type":"Feature","geometry":{"type":"LineString","coordinates":[[-4.20941,55.84847],[-4.20819,55.84831],[-4.20146,55.84778],[-4.20015,55.84753],[-4.19879,55.84703]]},"properties":{"id":1536,"name":"London Rd","opened":"2023-07-06","km":0.693,"t":4523,"c":0,"n":4523}},{"type":"Feature","geometry":{"type":"LineString","coordinates":[[-4.26575,55.83363],[-4.26263,55.84226],[-4.26226,55.84301]]},"properties":{"id":1537,"name":"Victoria Rd","opened":"2018-11-14","km":1.068,"t":97471,"c":31592,"n":65879}},{"type":"Feature","geometry":{"type":"LineString","coordinates":[[-4.19763,55.89538],[-4.19781,55.89526],[-4.19861,55.89503],[-4.19937,55.89471],[-4.20212,55.89249]]},"properties":{"id":1582,"name":"Wallacewell Road","opened":"2021-04-27","km":0.435,"t":0,"c":0,"n":0}},{"type":"Feature","geometry":{"type":"LineString","coordinates":[[-4.19755,55.89514],[-4.19861,55.89489],[-4.19919,55.89464],[-4.20182,55.89251]]},"properties":{"id":1583,"name":"Wallacewell Road","opened":"2021-04-27","km":0.406,"t":0,"c":0,"n":0}},{"type":"Feature","geometry":{"type":"LineString","coordinates":[[-4.34078,55.83181],[-4.34126,55.83199],[-4.34222,55.83218],[-4.34753,55.83236]]},"properties":{"id":1594,"name":"Braidcraft Rd (Lyoncross Rd - Corkerhill Rd)","opened":"2020-09-13","km":0.433,"t":0,"c":0,"n":0}},{"type":"Feature","geometry":{"type":"LineString","coordinates":[[-4.31123,55.86345],[-4.31204,55.86372]]},"properties":{"id":1600,"name":"Pearce Lane","opened":"2017-09-15","km":0.06,"t":0,"c":0,"n":0}},{"type":"Feature","geometry":{"type":"LineString","coordinates":[[-4.34091,55.83172],[-4.34126,55.83192],[-4.34222,55.83211],[-4.34749,55.83228]]},"properties":{"id":1703,"name":"Braidcraft Rd (Lyoncross Rd - Corkerhill Rd)","opened":"2020-09-13","km":0.427,"t":0,"c":0,"n":0}},{"type":"Feature","geometry":{"type":"LineString","coordinates":[[-4.24388,55.87319],[-4.24338,55.87298],[-4.24155,55.87257],[-4.24125,55.87244],[-4.24075,55.87205]]},"properties":{"id":1706,"name":"Pinkston Road","opened":"2017-09-15","km":0.24,"t":701,"c":0,"n":701}},{"type":"Feature","geometry":{"type":"LineString","coordinates":[[-4.24679,55.85593],[-4.24732,55.85497],[-4.2488,55.85492],[-4.2501,55.85469]]},"properties":{"id":1708,"name":"Bridgegate","opened":"2024-06-17","km":0.29,"t":41775,"c":15681,"n":26094}},{"type":"Feature","geometry":{"type":"MultiLineString","coordinates":[[[-4.27551,55.88695],[-4.27692,55.88557],[-4.27813,55.88472]],[[-4.27539,55.88707],[-4.27551,55.88695]]]},"properties":{"id":1714,"name":"Bilsland Drive","opened":"2020-09-13","km":0.313,"t":21,"c":0,"n":21}},{"type":"Feature","geometry":{"type":"MultiLineString","coordinates":[[[-4.27541,55.8869],[-4.27699,55.88537],[-4.27838,55.88449]],[[-4.26819,55.88857],[-4.27495,55.88721],[-4.27541,55.8869]]]},"properties":{"id":1716,"name":"Bilsland Drive","opened":"2020-09-13","km":0.824,"t":246,"c":0,"n":246}},{"type":"Feature","geometry":{"type":"LineString","coordinates":[[-4.25586,55.88661],[-4.25052,55.88651]]},"properties":{"id":1718,"name":"Hawthorn St","opened":"2020-10-02","km":0.334,"t":65,"c":0,"n":65}},{"type":"Feature","geometry":{"type":"LineString","coordinates":[[-4.24152,55.88715],[-4.23988,55.88728],[-4.23721,55.88682]]},"properties":{"id":1719,"name":"Hawthorn St","opened":"2020-10-02","km":0.278,"t":72,"c":0,"n":72}},{"type":"Feature","geometry":{"type":"LineString","coordinates":[[-4.26005,55.88765],[-4.26102,55.88801],[-4.2646,55.88867]]},"properties":{"id":1721,"name":"Bilsland Drive","opened":"2020-09-13","km":0.309,"t":246,"c":0,"n":246}},{"type":"Feature","geometry":{"type":"LineString","coordinates":[[-4.25597,55.88656],[-4.2504,55.88646]]},"properties":{"id":1722,"name":"Hawthorn St","opened":"2020-10-02","km":0.348,"t":65,"c":0,"n":65}},{"type":"Feature","geometry":{"type":"LineString","coordinates":[[-4.24717,55.85328],[-4.24894,55.85379],[-4.25052,55.8544]]},"properties":{"id":1724,"name":"Clyde St","opened":"2017-09-15","km":0.245,"t":70382,"c":37609,"n":32773}},{"type":"Feature","geometry":{"type":"LineString","coordinates":[[-4.17128,55.88224],[-4.16779,55.88273],[-4.16562,55.88325]]},"properties":{"id":1735,"name":"Cumbernauld Rd","opened":"2020-08-20","km":0.373,"t":0,"c":0,"n":0}},{"type":"Feature","geometry":{"type":"LineString","coordinates":[[-4.23891,55.8536],[-4.23951,55.8541],[-4.24028,55.85448],[-4.24037,55.85442],[-4.24052,55.85451]]},"properties":{"id":1736,"name":"Footway from Charlotte St to Greendyke St","opened":"2017-09-15","km":0.154,"t":27309,"c":18644,"n":8665}},{"type":"Feature","geometry":{"type":"LineString","coordinates":[[-4.20868,55.85304],[-4.20901,55.85145],[-4.20884,55.85127],[-4.20888,55.85111],[-4.20908,55.85103],[-4.2096,55.84909]]},"properties":{"id":1737,"name":"Clyde Gateway","opened":"2017-09-15","km":0.456,"t":1443,"c":0,"n":1443}},{"type":"Feature","geometry":{"type":"LineString","coordinates":[[-4.20977,55.84807],[-4.20991,55.84746],[-4.21025,55.84687]]},"properties":{"id":1739,"name":"Clyde gateway","opened":"2017-09-15","km":0.138,"t":4594,"c":166,"n":4428}},{"type":"Feature","geometry":{"type":"LineString","coordinates":[[-4.21142,55.84586],[-4.21599,55.84336]]},"properties":{"id":1740,"name":"Clyde gateway","opened":"2017-09-15","km":0.4,"t":2563,"c":946,"n":1617}},{"type":"Feature","geometry":{"type":"LineString","coordinates":[[-4.2179,55.8426],[-4.21935,55.84246],[-4.22096,55.84255]]},"properties":{"id":1742,"name":"Clyde gateway","opened":"2017-09-15","km":0.195,"t":7524,"c":1399,"n":6125}},{"type":"Feature","geometry":{"type":"LineString","coordinates":[[-4.2261,55.84207],[-4.22672,55.8413]]},"properties":{"id":1744,"name":"Clyde gateway","opened":"2017-09-15","km":0.095,"t":1920,"c":0,"n":1920}},{"type":"Feature","geometry":{"type":"LineString","coordinates":[[-4.22633,55.84222],[-4.22692,55.84137]]},"properties":{"id":1745,"name":"Clyde gateway","opened":"2017-09-15","km":0.102,"t":1920,"c":0,"n":1920}},{"type":"Feature","geometry":{"type":"LineString","coordinates":[[-4.22407,55.84278],[-4.22484,55.84279],[-4.22562,55.84268]]},"properties":{"id":1746,"name":"Clyde gateway","opened":"2017-09-15","km":0.099,"t":1406,"c":0,"n":1406}},{"type":"Feature","geometry":{"type":"LineString","coordinates":[[-4.21798,55.84278],[-4.21938,55.84261],[-4.221,55.84273]]},"properties":{"id":1748,"name":"Clyde gateway","opened":"2017-09-15","km":0.193,"t":7524,"c":1399,"n":6125}},{"type":"Feature","geometry":{"type":"LineString","coordinates":[[-4.21145,55.8461],[-4.2171,55.84302]]},"properties":{"id":1749,"name":"Clyde gateway","opened":"2017-09-15","km":0.493,"t":2563,"c":946,"n":1617}},{"type":"Feature","geometry":{"type":"LineString","coordinates":[[-4.21012,55.84809],[-4.21059,55.84692]]},"properties":{"id":1750,"name":"Clyde gateway","opened":"2017-09-15","km":0.134,"t":4437,"c":340,"n":4097}},{"type":"Feature","geometry":{"type":"LineString","coordinates":[[-4.20899,55.85283],[-4.20951,55.85099],[-4.20996,55.84881]]},"properties":{"id":1751,"name":"Clyde Gateway","opened":"2017-09-15","km":0.452,"t":1443,"c":0,"n":1443}},{"type":"Feature","geometry":{"type":"LineString","coordinates":[[-4.308,55.87712],[-4.30726,55.87704]]},"properties":{"id":1753,"name":"Clarence Dr","opened":"2020-12-04","km":0.047,"t":956,"c":0,"n":956}},{"type":"Feature","geometry":{"type":"LineString","coordinates":[[-4.28869,55.86691],[-4.28784,55.86789]]},"properties":{"id":1767,"name":"Kelvin Way","opened":"2020-09-29","km":0.122,"t":54262,"c":9238,"n":45024}},{"type":"Feature","geometry":{"type":"LineString","coordinates":[[-4.25935,55.84596],[-4.25882,55.84561]]},"properties":{"id":1784,"name":"Devon St","opened":"2017-09-15","km":0.052,"t":42412,"c":17929,"n":24483}},{"type":"Feature","geometry":{"type":"LineString","coordinates":[[-4.29646,55.86798],[-4.2954,55.86787],[-4.29364,55.86736]]},"properties":{"id":1807,"name":"Old Dumbarton Rd","opened":"2017-09-15","km":0.192,"t":26752,"c":2430,"n":24322}},{"type":"Feature","geometry":{"type":"LineString","coordinates":[[-4.26346,55.82983],[-4.26246,55.82972],[-4.26188,55.82943],[-4.26152,55.82894],[-4.26182,55.82868],[-4.26194,55.82813],[-4.26186,55.82798]]},"properties":{"id":1816,"name":"Queen's Park St","opened":"2017-09-15","km":0.289,"t":6917,"c":838,"n":6079}},{"type":"Feature","geometry":{"type":"LineString","coordinates":[[-4.19664,55.87843],[-4.19599,55.87854],[-4.19415,55.87841]]},"properties":{"id":1838,"name":"Royston Rd","opened":"2021-05-01","km":0.162,"t":4,"c":0,"n":4}},{"type":"Feature","geometry":{"type":"LineString","coordinates":[[-4.29713,55.87229],[-4.29743,55.87006]]},"properties":{"id":1847,"name":"Church St","opened":"2024-10-01","km":0.25,"t":28572,"c":1069,"n":27503}},{"type":"Feature","geometry":{"type":"LineString","coordinates":[[-4.29947,55.87054],[-4.29623,55.87309],[-4.29523,55.87399]]},"properties":{"id":1848,"name":"Byres Rd (From Dumbarton Rd to Highburgh Rd)","opened":"2024-10-01","km":0.468,"t":28572,"c":1069,"n":27503}},{"type":"Feature","geometry":{"type":"LineString","coordinates":[[-4.29935,55.87052],[-4.29665,55.87261],[-4.29509,55.87395]]},"properties":{"id":1849,"name":"Byres Rd (From Dumbarton Rd to Highburgh Rd)","opened":"2024-10-01","km":0.467,"t":28572,"c":1069,"n":27503}},{"type":"Feature","geometry":{"type":"LineString","coordinates":[[-4.26859,55.82846],[-4.26713,55.82895],[-4.26483,55.82948],[-4.26416,55.82981],[-4.26373,55.82988],[-4.26361,55.83008],[-4.26317,55.83106],[-4.26321,55.83182],[-4.26339,55.83216],[-4.26385,55.83264],[-4.26437,55.83299],[-4.2652,55.83333],[-4.26594,55.8335]]},"properties":{"id":1865,"name":"Langside Rd- Queen's Dr","opened":"2017-09-15","km":0.835,"t":35163,"c":13837,"n":21326}},{"type":"Feature","geometry":{"type":"LineString","coordinates":[[-4.20182,55.89251],[-4.20204,55.89221],[-4.20293,55.89158]]},"properties":{"id":1874,"name":"Wallacewell Rd - Northgate Rd junction","opened":"2021-04-27","km":0.129,"t":0,"c":0,"n":0}},{"type":"Feature","geometry":{"type":"LineString","coordinates":[[-4.20702,55.89733],[-4.20663,55.89699],[-4.20305,55.8928],[-4.20231,55.89234],[-4.20212,55.89249]]},"properties":{"id":1875,"name":"Northgate Rd","opened":"2017-09-15","km":0.652,"t":0,"c":0,"n":0}},{"type":"Feature","geometry":{"type":"LineString","coordinates":[[-4.20247,55.8922],[-4.203,55.89247],[-4.20346,55.89289],[-4.20719,55.89725]]},"properties":{"id":1876,"name":"Northgate Rd","opened":"2017-09-15","km":0.639,"t":0,"c":0,"n":0}},{"type":"Feature","geometry":{"type":"LineString","coordinates":[[-4.2651,55.83671],[-4.26487,55.83669]]},"properties":{"id":1885,"name":"Allison St","opened":"2018-11-14","km":0.014,"t":366,"c":0,"n":366}},{"type":"Feature","geometry":{"type":"LineString","coordinates":[[-4.26465,55.83663],[-4.26442,55.83657]]},"properties":{"id":1886,"name":"Allison St","opened":"2018-11-14","km":0.016,"t":11799,"c":4581,"n":7218}},{"type":"Feature","geometry":{"type":"LineString","coordinates":[[-4.26468,55.83781],[-4.26449,55.83776]]},"properties":{"id":1887,"name":"Calder St","opened":"2018-11-14","km":0.014,"t":254,"c":0,"n":254}},{"type":"Feature","geometry":{"type":"LineString","coordinates":[[-4.26424,55.83774],[-4.26403,55.83773]]},"properties":{"id":1888,"name":"Calder St","opened":"2018-11-14","km":0.014,"t":10364,"c":4581,"n":5783}},{"type":"Feature","geometry":{"type":"LineString","coordinates":[[-4.27038,55.83626],[-4.26966,55.83586]]},"properties":{"id":1892,"name":"Torrisdale St","opened":"2017-09-15","km":0.064,"t":16877,"c":5308,"n":11569}},{"type":"Feature","geometry":{"type":"LineString","coordinates":[[-4.26479,55.86541],[-4.26524,55.86425]]},"properties":{"id":1903,"name":"Pitt Street (Sauchiehall Street - W Regent St)","opened":"2017-09-15","km":0.133,"t":33539,"c":3865,"n":29674}},{"type":"Feature","geometry":{"type":"LineString","coordinates":[[-4.26524,55.86424],[-4.26555,55.86347]]},"properties":{"id":1904,"name":"Pitt Street (W Regent St - W George St)","opened":"2017-09-15","km":0.089,"t":2642,"c":0,"n":2642}},{"type":"Feature","geometry":{"type":"LineString","coordinates":[[-4.26555,55.86345],[-4.26639,55.86112],[-4.26624,55.8611],[-4.26633,55.86082]]},"properties":{"id":1905,"name":"Pitt Street (W George St - Waterloo St)","opened":"2017-09-15","km":0.307,"t":51068,"c":18166,"n":32902}},{"type":"Feature","geometry":{"type":"LineString","coordinates":[[-4.25612,55.85599],[-4.25724,55.85626],[-4.2596,55.85649]]},"properties":{"id":1907,"name":"Clyde St","opened":"2020-05-15","km":0.227,"t":135004,"c":45611,"n":89393}},{"type":"Feature","geometry":{"type":"LineString","coordinates":[[-4.18038,55.8398],[-4.17738,55.83903]]},"properties":{"id":1917,"name":"London Rd","opened":"2020-07-17","km":0.207,"t":417,"c":0,"n":417}},{"type":"Feature","geometry":{"type":"LineString","coordinates":[[-4.18055,55.83967],[-4.17748,55.83891]]},"properties":{"id":1918,"name":"London Rd","opened":"2020-07-17","km":0.21,"t":417,"c":0,"n":417}},{"type":"Feature","geometry":{"type":"LineString","coordinates":[[-4.31588,55.86238],[-4.31657,55.86224],[-4.31704,55.86233]]},"properties":{"id":1921,"name":"Langlands Road","opened":"2017-09-15","km":0.079,"t":0,"c":0,"n":0}},{"type":"Feature","geometry":{"type":"LineString","coordinates":[[-4.26579,55.89655],[-4.26533,55.89602]]},"properties":{"id":1938,"name":"Balmore Rd","opened":"2017-09-15","km":0.065,"t":0,"c":0,"n":0}},{"type":"Feature","geometry":{"type":"LineString","coordinates":[[-4.12783,55.86725],[-4.1275,55.86724],[-4.12651,55.86751]]},"properties":{"id":1941,"name":"Westerhouse Rd","opened":"2017-09-15","km":0.09,"t":0,"c":0,"n":0}},{"type":"Feature","geometry":{"type":"LineString","coordinates":[[-4.26391,55.83934],[-4.26621,55.8396]]},"properties":{"id":1942,"name":"Cuthberston St","opened":"2017-09-15","km":0.147,"t":283,"c":0,"n":283}},{"type":"Feature","geometry":{"type":"LineString","coordinates":[[-4.27086,55.87515],[-4.26967,55.87465]]},"properties":{"id":1943,"name":"N Woodside Rd","opened":"2017-09-15","km":0.093,"t":33481,"c":2750,"n":30731}},{"type":"Feature","geometry":{"type":"LineString","coordinates":[[-4.27076,55.86699],[-4.27117,55.86763],[-4.2689,55.86984]]},"properties":{"id":1971,"name":"St George's Road","opened":"2021-06-06","km":0.36,"t":57680,"c":8297,"n":49383}},{"type":"Feature","geometry":{"type":"LineString","coordinates":[[-4.27152,55.86755],[-4.27143,55.86757]]},"properties":{"id":1972,"name":"St George's Road","opened":"2021-06-06","km":0.007,"t":10717,"c":186,"n":10531}},{"type":"Feature","geometry":{"type":"LineString","coordinates":[[-4.20282,55.8919],[-4.20246,55.8922]]},"properties":{"id":1979,"name":"Wallacewell Rd - Northgate Rd junction","opened":"2021-04-27","km":0.04,"t":0,"c":0,"n":0}},{"type":"Feature","geometry":{"type":"LineString","coordinates":[[-4.20255,55.89223],[-4.20259,55.89209]]},"properties":{"id":1980,"name":"Wallacewell Rd - Northgate Rd junction","opened":"2021-04-27","km":0.017,"t":0,"c":0,"n":0}},{"type":"Feature","geometry":{"type":"LineString","coordinates":[[-4.20239,55.89238],[-4.20217,55.89245]]},"properties":{"id":1981,"name":"Wallacewell Rd - Northgate Rd junction","opened":"2021-04-27","km":0.017,"t":0,"c":0,"n":0}},{"type":"Feature","geometry":{"type":"LineString","coordinates":[[-4.21827,55.89009],[-4.21832,55.88893]]},"properties":{"id":1982,"name":"Balornock Rd","opened":"2017-09-15","km":0.13,"t":203,"c":0,"n":203}},{"type":"Feature","geometry":{"type":"LineString","coordinates":[[-4.21845,55.89007],[-4.21848,55.88911],[-4.21832,55.88894]]},"properties":{"id":1983,"name":"Balornock Rd","opened":"2017-09-15","km":0.128,"t":203,"c":0,"n":203}},{"type":"Feature","geometry":{"type":"LineString","coordinates":[[-4.2689,55.86984],[-4.26772,55.87097]]},"properties":{"id":1985,"name":"St George's Road","opened":"2021-06-06","km":0.146,"t":53051,"c":7184,"n":45867}}]}